{"type": "FeatureCollection", "features": [ {"type": "Feature", "properties": {"norad_id": 35593, "name": "COSMOS 2251 DEB", "group": "cosmos-2251-debris", "lat": -28.082288017565496, "lon": -72.06203872286056, "alt_km": 744.2317462597593, "timestamp": "2025-12-08T03:50:07.392387+00:00", "meta": {"OBJECT_NAME": "COSMOS 2251 DEB", "OBJECT_ID": "1993-036AML", "EPOCH": "2025-12-06T06:29:47.973696", "MEAN_MOTION": 14.25548393, "ECCENTRICITY": 0.01053072, "INCLINATION": 74.0859, "RA_OF_ASC_NODE": 300.0924, "ARG_OF_PERICENTER": 308.0252, "MEAN_ANOMALY": 51.1424, "EPHEMERIS_TYPE": 0, "CLASSIFICATION_TYPE": "U", "NORAD_CAT_ID": 35593, "ELEMENT_SET_NO": 999, "REV_AT_EPOCH": 84973, "BSTAR": 0.0026306785, "MEAN_MOTION_DOT": 6.575e-05, "MEAN_MOTION_DDOT": 0}, "tle": {"line1": "1 35593U 93036AML 25340.27069414  .00006575  00000+0  26307-2 0  9995", "line2": "2 35593  74.0859 300.0924 0105307 308.0252  51.1424 14.25548393849736"}}, "geometry": {"type": "Point", "coordinates": [-72.06203872286056, -28.082288017565496]}}, {"type": "Feature", "properties": {"norad_id": 35594, "name": "COSMOS 2251 DEB", "group": "cosmos-2251-debris", "lat": -32.04769750262697, "lon": 105.32298446239344, "alt_km": 615.3335114978809, "timestamp": "2025-12-08T03:50:07.392396+00:00", "meta": {"OBJECT_NAME": "COSMOS 2251 DEB", "OBJECT_ID": "1993-036AMM", "EPOCH": "2025-12-01T02:30:04.449024", "MEAN_MOTION": 14.8736155, "ECCENTRICITY": 0.00313469, "INCLINATION": 73.8065, "RA_OF_ASC_NODE": 130.0573, "ARG_OF_PERICENTER": 241.1394, "MEAN_ANOMALY": 118.6638, "EPHEMERIS_TYPE": 0, "CLASSIFICATION_TYPE": "U", "NORAD_CAT_ID": 35594, "ELEMENT_SET_NO": 999, "REV_AT_EPOCH": 88012, "BSTAR": 0.00176297, "MEAN_MOTION_DOT": 0.00016075, "MEAN_MOTION_DDOT": 0}, "tle": {"line1": "1 35594U 93036AMM 25335.10421816  .00016075  00000+0  17630-2 0  9995", "line2": "2 35594  73.8065 130.0573 0031346 241.1394 118.6638 14.87361550880129"}}, "geometry": {"type": "Point", "coordinates": [105.32298446239344, -32.04769750262697]}}, {"type": "Feature", "properties": {"norad_id": 35602, "name": "COSMOS 2251 DEB", "group": "cosmos-2251-debris", "lat": 21.659080859411098, "lon": -161.39264164593854, "alt_km": 494.96588730656276, "timestamp": "2025-12-08T03:50:07.392406+00:00", "meta": {"OBJECT_NAME": "COSMOS 2251 DEB", "OBJECT_ID": "1993-036AMV", "EPOCH": "2025-12-07T07:56:16.171008", "MEAN_MOTION": 15.34811242, "ECCENTRICITY": 0.00904702, "INCLINATION": 73.9933, "RA_OF_ASC_NODE": 193.8429, "ARG_OF_PERICENTER": 260.8314, "MEAN_ANOMALY": 222.0901, "EPHEMERIS_TYPE": 0, "CLASSIFICATION_TYPE": "U", "NORAD_CAT_ID": 35602, "ELEMENT_SET_NO": 999, "REV_AT_EPOCH": 90008, "BSTAR": 0.0006224323, "MEAN_MOTION_DOT": 0.00024059, "MEAN_MOTION_DDOT": 0}, "tle": {"line1": "1 35602U 93036AMV 25341.33074272  .00024059  00000+0  62243-3 0  9999", "line2": "2 35602  73.9933 193.8429 0090470 260.8314 222.0901 15.34811242900086"}}, "geometry": {"type": "Point", "coordinates": [-161.39264164593854, 21.659080859411098]}}, {"type": "Feature", "properties": {"norad_id": 35605, "name": "COSMOS 2251 DEB", "group": "cosmos-2251-debris", "lat": 68.06621167677103, "lon": 120.56621204108204, "alt_km": 483.7976167117067, "timestamp": "2025-12-08T03:50:07.392416+00:00", "meta": {"OBJECT_NAME": "COSMOS 2251 DEB", "OBJECT_ID": "1993-036AMY", "EPOCH": "2025-12-07T06:59:40.585344", "MEAN_MOTION": 15.3116579, "ECCENTRICITY": 0.00290385, "INCLINATION": 73.8709, "RA_OF_ASC_NODE": 348.3796, "ARG_OF_PERICENTER": 285.0251, "MEAN_ANOMALY": 74.7738, "EPHEMERIS_TYPE": 0, "CLASSIFICATION_TYPE": "U", "NORAD_CAT_ID": 35605, "ELEMENT_SET_NO": 999, "REV_AT_EPOCH": 65888, "BSTAR": 0.0085014266, "MEAN_MOTION_DOT": 0.00268466, "MEAN_MOTION_DDOT": 0}, "tle": {"line1": "1 35605U 93036AMY 25341.29144196  .00268466  00000+0  85014-2 0  9992", "line2": "2 35605  73.8709 348.3796 0029038 285.0251  74.7738 15.31165790658889"}}, "geometry": {"type": "Point", "coordinates": [120.56621204108204, 68.06621167677103]}}, {"type": "Feature", "properties": {"norad_id": 35606, "name": "COSMOS 2251 DEB", "group": "cosmos-2251-debris", "lat": 52.97171915313991, "lon": 40.74869078034067, "alt_km": 1434.087207187088, "timestamp": "2025-12-08T03:50:07.392426+00:00", "meta": {"OBJECT_NAME": "COSMOS 2251 DEB", "OBJECT_ID": "1993-036AMZ", "EPOCH": "2025-12-06T08:34:07.137120", "MEAN_MOTION": 13.41197641, "ECCENTRICITY": 0.04578135, "INCLINATION": 73.8109, "RA_OF_ASC_NODE": 20.9706, "ARG_OF_PERICENTER": 227.6256, "MEAN_ANOMALY": 128.5237, "EPHEMERIS_TYPE": 0, "CLASSIFICATION_TYPE": "U", "NORAD_CAT_ID": 35606, "ELEMENT_SET_NO": 999, "REV_AT_EPOCH": 60954, "BSTAR": 0.0018916944, "MEAN_MOTION_DOT": 1.924e-05, "MEAN_MOTION_DDOT": 0}, "tle": {"line1": "1 35606U 93036AMZ 25340.35702705  .00001924  00000+0  18917-2 0  9997", "line2": "2 35606  73.8109  20.9706 0457813 227.6256 128.5237 13.41197641609541"}}, "geometry": {"type": "Point", "coordinates": [40.74869078034067, 52.97171915313991]}}, {"type": "Feature", "properties": {"norad_id": 35611, "name": "COSMOS 2251 DEB", "group": "cosmos-2251-debris", "lat": 4.8984341954862725, "lon": 6.822248645304513, "alt_km": 653.6422897291786, "timestamp": "2025-12-08T03:50:07.392436+00:00", "meta": {"OBJECT_NAME": "COSMOS 2251 DEB", "OBJECT_ID": "1993-036ANE", "EPOCH": "2025-12-06T00:29:55.775616", "MEAN_MOTION": 14.72576947, "ECCENTRICITY": 0.00221682, "INCLINATION": 74.0182, "RA_OF_ASC_NODE": 192.3968, "ARG_OF_PERICENTER": 266.2005, "MEAN_ANOMALY": 93.6633, "EPHEMERIS_TYPE": 0, "CLASSIFICATION_TYPE": "U", "NORAD_CAT_ID": 35611, "ELEMENT_SET_NO": 999, "REV_AT_EPOCH": 87191, "BSTAR": 0.003154175, "MEAN_MOTION_DOT": 0.00020171, "MEAN_MOTION_DDOT": 0}, "tle": {"line1": "1 35611U 93036ANE 25340.02078444  .00020171  00000+0  31542-2 0  9997", "line2": "2 35611  74.0182 192.3968 0022168 266.2005  93.6633 14.72576947871916"}}, "geometry": {"type": "Point", "coordinates": [6.822248645304513, 4.8984341954862725]}}, {"type": "Feature", "properties": {"norad_id": 35614, "name": "COSMOS 2251 DEB", "group": "cosmos-2251-debris", "lat": 28.190019190818212, "lon": -14.782619108694412, "alt_km": 720.411728590906, "timestamp": "2025-12-08T03:50:07.392446+00:00", "meta": {"OBJECT_NAME": "COSMOS 2251 DEB", "OBJECT_ID": "1993-036ANH", "EPOCH": "2025-12-05T08:35:34.166976", "MEAN_MOTION": 14.66905481, "ECCENTRICITY": 0.00762912, "INCLINATION": 73.9585, "RA_OF_ASC_NODE": 341.7759, "ARG_OF_PERICENTER": 198.0285, "MEAN_ANOMALY": 161.8178, "EPHEMERIS_TYPE": 0, "CLASSIFICATION_TYPE": "U", "NORAD_CAT_ID": 35614, "ELEMENT_SET_NO": 999, "REV_AT_EPOCH": 87621, "BSTAR": 0.0016552596, "MEAN_MOTION_DOT": 9.649e-05, "MEAN_MOTION_DDOT": 0}, "tle": {"line1": "1 35614U 93036ANH 25339.35803434  .00009649  00000+0  16553-2 0  9991", "line2": "2 35614  73.9585 341.7759 0076291 198.0285 161.8178 14.66905481876212"}}, "geometry": {"type": "Point", "coordinates": [-14.782619108694412, 28.190019190818212]}}, {"type": "Feature", "properties": {"norad_id": 35645, "name": "COSMOS 2251 DEB", "group": "cosmos-2251-debris", "lat": 69.79123409020896, "lon": -135.06354522942087, "alt_km": 776.9194665546638, "timestamp": "2025-12-08T03:50:07.392456+00:00", "meta": {"OBJECT_NAME": "COSMOS 2251 DEB", "OBJECT_ID": "1993-036ANL", "EPOCH": "2025-12-07T00:46:52.491936", "MEAN_MOTION": 14.45441288, "ECCENTRICITY": 0.00694025, "INCLINATION": 73.9659, "RA_OF_ASC_NODE": 98.4206, "ARG_OF_PERICENTER": 256.8265, "MEAN_ANOMALY": 102.5143, "EPHEMERIS_TYPE": 0, "CLASSIFICATION_TYPE": "U", "NORAD_CAT_ID": 35645, "ELEMENT_SET_NO": 999, "REV_AT_EPOCH": 86689, "BSTAR": 0.0033861311, "MEAN_MOTION_DOT": 0.00012276, "MEAN_MOTION_DDOT": 0}, "tle": {"line1": "1 35645U 93036ANL 25341.03255199  .00012276  00000+0  33861-2 0  9993", "line2": "2 35645  73.9659  98.4206 0069402 256.8265 102.5143 14.45441288866892"}}, "geometry": {"type": "Point", "coordinates": [-135.06354522942087, 69.79123409020896]}}, {"type": "Feature", "properties": {"norad_id": 35646, "name": "COSMOS 2251 DEB", "group": "cosmos-2251-debris", "lat": -43.45211451217089, "lon": 47.38829549044116, "alt_km": 1368.8520640736597, "timestamp": "2025-12-08T03:50:07.392466+00:00", "meta": {"OBJECT_NAME": "COSMOS 2251 DEB", "OBJECT_ID": "1993-036ANM", "EPOCH": "2025-12-04T12:27:05.030208", "MEAN_MOTION": 13.40795719, "ECCENTRICITY": 0.0457655, "INCLINATION": 73.8717, "RA_OF_ASC_NODE": 69.0727, "ARG_OF_PERICENTER": 180.5936, "MEAN_ANOMALY": 201.9959, "EPHEMERIS_TYPE": 0, "CLASSIFICATION_TYPE": "U", "NORAD_CAT_ID": 35646, "ELEMENT_SET_NO": 999, "REV_AT_EPOCH": 81748, "BSTAR": 0.0021754, "MEAN_MOTION_DOT": 2.2e-05, "MEAN_MOTION_DDOT": 0}, "tle": {"line1": "1 35646U 93036ANM 25338.51880822  .00002200  00000+0  21754-2 0  9994", "line2": "2 35646  73.8717  69.0727 0457655 180.5936 201.9959 13.40795719817483"}}, "geometry": {"type": "Point", "coordinates": [47.38829549044116, -43.45211451217089]}}, {"type": "Feature", "properties": {"norad_id": 35647, "name": "COSMOS 2251 DEB", "group": "cosmos-2251-debris", "lat": -24.793002071611063, "lon": 130.69030956712905, "alt_km": 782.5009477470949, "timestamp": "2025-12-08T03:50:07.392476+00:00", "meta": {"OBJECT_NAME": "COSMOS 2251 DEB", "OBJECT_ID": "1993-036ANN", "EPOCH": "2025-12-06T04:19:05.390400", "MEAN_MOTION": 14.4357388, "ECCENTRICITY": 0.0045144, "INCLINATION": 74.0229, "RA_OF_ASC_NODE": 306.7667, "ARG_OF_PERICENTER": 47.5691, "MEAN_ANOMALY": 312.927, "EPHEMERIS_TYPE": 0, "CLASSIFICATION_TYPE": "U", "NORAD_CAT_ID": 35647, "ELEMENT_SET_NO": 999, "REV_AT_EPOCH": 67569, "BSTAR": 0.0014529978, "MEAN_MOTION_DOT": 4.961e-05, "MEAN_MOTION_DDOT": 0}, "tle": {"line1": "1 35647U 93036ANN 25340.17992350  .00004961  00000+0  14530-2 0  9990", "line2": "2 35647  74.0229 306.7667 0045144  47.5691 312.9270 14.43573880675696"}}, "geometry": {"type": "Point", "coordinates": [130.69030956712905, -24.793002071611063]}}]}